{
  "type" : "FeatureCollection",
  "features" : [ {
    "type" : "Feature",
    "id" : "vA_stseg_1630",
    "geometry" : {
      "type" : "LineString",
      "coordinates" : [ [ 37.63855405691722, 55.69777663242227 ], [ 37.63838088068151, 55.69781238708212 ], [ 37.63821833089452, 55.69786490241139 ] ]
    },
    "properties" : {
      "id" : "vA_stseg_1630",
      "object_type" : "heat_network",
      "variant_id" : "vA",
      "start_node_id" : "vA_nch_tie_p_126_65_1569",
      "end_node_id" : "vA_stch_1629",
      "flow_tph" : 391.82,
      "diameter" : 300,
      "length" : 23.36178773484396,
      "laying_method" : "base",
      "depth_start" : 3.0,
      "depth_end" : 3.0,
      "cost" : 3504782,
      "construction_cost" : 3504782,
      "k_spec" : 1.0
    }
  }, {
    "type" : "Feature",
    "id" : "vA_stseg_1631",
    "geometry" : {
      "type" : "LineString",
      "coordinates" : [ [ 37.63821833089452, 55.69786490241139 ], [ 37.6382803042186, 55.69795678628921 ] ]
    },
    "properties" : {
      "id" : "vA_stseg_1631",
      "object_type" : "heat_network",
      "variant_id" : "vA",
      "start_node_id" : "vA_stch_1629",
      "end_node_id" : 7,
      "flow_tph" : 27.82,
      "diameter" : 125,
      "length" : 10.94366736928523,
      "laying_method" : "base",
      "depth_start" : 3.0,
      "depth_end" : 3.0,
      "cost" : 1064545,
      "construction_cost" : 1064545,
      "k_spec" : 1.0
    }
  }, {
    "type" : "Feature",
    "id" : "vA_stseg_1638",
    "geometry" : {
      "type" : "LineString",
      "coordinates" : [ [ 37.63821833089452, 55.69786490241139 ], [ 37.63808354985879, 55.69787635135057 ], [ 37.635370489547455, 55.69847046712156 ] ]
    },
    "properties" : {
      "id" : "vA_stseg_1638",
      "object_type" : "heat_network",
      "variant_id" : "vA",
      "start_node_id" : "vA_stch_1629",
      "end_node_id" : "vA_stch_1637",
      "flow_tph" : 364.0,
      "diameter" : 300,
      "length" : 191.4782528561729,
      "laying_method" : "base",
      "depth_start" : 3.0,
      "depth_end" : 3.0,
      "cost" : 28725950,
      "construction_cost" : 28725950,
      "k_spec" : 1.0
    }
  }, {
    "type" : "Feature",
    "id" : "vA_stseg_1639",
    "geometry" : {
      "type" : "LineString",
      "coordinates" : [ [ 37.635370489547455, 55.69847046712156 ], [ 37.6354170560464, 55.6986147317495 ] ]
    },
    "properties" : {
      "id" : "vA_stseg_1639",
      "object_type" : "heat_network",
      "variant_id" : "vA",
      "start_node_id" : "vA_stch_1637",
      "end_node_id" : 5,
      "flow_tph" : 26.09,
      "diameter" : 125,
      "length" : 16.321534082619703,
      "laying_method" : "base",
      "depth_start" : 3.0,
      "depth_end" : 3.0,
      "cost" : 1587677,
      "construction_cost" : 1587677,
      "k_spec" : 1.0
    }
  }, {
    "type" : "Feature",
    "id" : "vA_stseg_1653",
    "geometry" : {
      "type" : "LineString",
      "coordinates" : [ [ 37.635370489547455, 55.69847046712156 ], [ 37.634899275784015, 55.69831433489191 ], [ 37.63402888262229, 55.69763980669072 ] ]
    },
    "properties" : {
      "id" : "vA_stseg_1653",
      "object_type" : "heat_network",
      "variant_id" : "vA",
      "start_node_id" : "vA_stch_1637",
      "end_node_id" : "vA_stch_1652",
      "flow_tph" : 139.06,
      "diameter" : 200,
      "length" : 127.23814000462568,
      "laying_method" : "base",
      "depth_start" : 3.0,
      "depth_end" : 3.0,
      "cost" : 15303567,
      "construction_cost" : 15303567,
      "k_spec" : 1.0
    }
  }, {
    "type" : "Feature",
    "id" : "vA_stseg_1668",
    "geometry" : {
      "type" : "LineString",
      "coordinates" : [ [ 37.635370489547455, 55.69847046712156 ], [ 37.63364544789306, 55.698636701132486 ] ]
    },
    "properties" : {
      "id" : "vA_stseg_1668",
      "object_type" : "heat_network",
      "variant_id" : "vA",
      "start_node_id" : "vA_stch_1637",
      "end_node_id" : "vA_stch_1667",
      "flow_tph" : 198.85,
      "diameter" : 250,
      "length" : 109.99999999996723,
      "laying_method" : "base",
      "depth_start" : 3.0,
      "depth_end" : 3.0,
      "cost" : 14885530,
      "construction_cost" : 14885530,
      "k_spec" : 1.0
    }
  }, {
    "type" : "Feature",
    "id" : "vA_stseg_1654",
    "geometry" : {
      "type" : "LineString",
      "coordinates" : [ [ 37.63402888262229, 55.69763980669072 ], [ 37.63396099137294, 55.69762271945472 ], [ 37.63387766958034, 55.6976402635771 ] ]
    },
    "properties" : {
      "id" : "vA_stseg_1654",
      "object_type" : "heat_network",
      "variant_id" : "vA",
      "start_node_id" : "vA_stch_1652",
      "end_node_id" : "vA_stch_1646",
      "flow_tph" : 71.39,
      "diameter" : 200,
      "length" : 10.261944967828128,
      "laying_method" : "base",
      "depth_start" : 3.0,
      "depth_end" : 3.0,
      "cost" : 1234255,
      "construction_cost" : 1234255,
      "k_spec" : 1.0
    }
  }, {
    "type" : "Feature",
    "id" : "vA_stseg_1659",
    "geometry" : {
      "type" : "LineString",
      "coordinates" : [ [ 37.63402888262229, 55.69763980669072 ], [ 37.63448764681212, 55.697368694239756 ] ]
    },
    "properties" : {
      "id" : "vA_stseg_1659",
      "object_type" : "heat_network",
      "variant_id" : "vA",
      "start_node_id" : "vA_stch_1652",
      "end_node_id" : "vA_stch_1658",
      "flow_tph" : 67.67,
      "diameter" : 200,
      "length" : 41.739295278584464,
      "laying_method" : "base",
      "depth_start" : 3.0,
      "depth_end" : 3.0,
      "cost" : 5020194,
      "construction_cost" : 5020194,
      "k_spec" : 1.0
    }
  }, {
    "type" : "Feature",
    "id" : "vA_stseg_1672",
    "geometry" : {
      "type" : "LineString",
      "coordinates" : [ [ 37.63364544789306, 55.698636701132486 ], [ 37.63365880250189, 55.69887647402861 ], [ 37.63408737680749, 55.69951200481671 ] ]
    },
    "properties" : {
      "id" : "vA_stseg_1672",
      "object_type" : "heat_network",
      "variant_id" : "vA",
      "start_node_id" : "vA_stch_1667",
      "end_node_id" : "vA_stch_1671",
      "flow_tph" : 158.85,
      "diameter" : 250,
      "length" : 102.39221360440636,
      "laying_method" : "base",
      "depth_start" : 3.0,
      "depth_end" : 3.0,
      "cost" : 13856022,
      "construction_cost" : 13856022,
      "k_spec" : 1.0
    }
  }, {
    "type" : "Feature",
    "id" : "vA_stseg_1692",
    "geometry" : {
      "type" : "LineString",
      "coordinates" : [ [ 37.63364544789306, 55.698636701132486 ], [ 37.63354901831278, 55.69864599283163 ], [ 37.63326078163771, 55.69865385797575 ], [ 37.63313932211122, 55.69865306825248 ] ]
    },
    "properties" : {
      "id" : "vA_stseg_1692",
      "object_type" : "heat_network",
      "variant_id" : "vA",
      "start_node_id" : "vA_stch_1667",
      "end_node_id" : 12,
      "flow_tph" : 40.0,
      "diameter" : 125,
      "length" : 31.923252457652346,
      "laying_method" : "base",
      "depth_start" : 3.0,
      "depth_end" : 3.0,
      "cost" : 3105334,
      "construction_cost" : 3105334,
      "k_spec" : 1.0
    }
  }, {
    "type" : "Feature",
    "id" : "vA_stseg_1648",
    "geometry" : {
      "type" : "LineString",
      "coordinates" : [ [ 37.63387766958034, 55.6976402635771 ], [ 37.6339010562985, 55.697722607233096 ] ]
    },
    "properties" : {
      "id" : "vA_stseg_1648",
      "object_type" : "heat_network",
      "variant_id" : "vA",
      "start_node_id" : "vA_stch_1646",
      "end_node_id" : 13,
      "flow_tph" : 19.77,
      "diameter" : 100,
      "length" : 9.282153962931908,
      "laying_method" : "base",
      "depth_start" : 3.0,
      "depth_end" : 3.0,
      "cost" : 833055,
      "construction_cost" : 833055,
      "k_spec" : 1.0
    }
  }, {
    "type" : "Feature",
    "id" : "vA_stseg_1649",
    "geometry" : {
      "type" : "LineString",
      "coordinates" : [ [ 37.63387766958034, 55.6976402635771 ], [ 37.633785377511856, 55.69752108053315 ], [ 37.6337524411436, 55.6974723292097 ] ]
    },
    "properties" : {
      "id" : "vA_stseg_1649",
      "object_type" : "heat_network",
      "variant_id" : "vA",
      "start_node_id" : "vA_stch_1646",
      "end_node_id" : 14,
      "flow_tph" : 19.73,
      "diameter" : 100,
      "length" : 20.286104773220117,
      "laying_method" : "base",
      "depth_start" : 3.0,
      "depth_end" : 3.0,
      "cost" : 1820637,
      "construction_cost" : 1820637,
      "k_spec" : 1.0
    }
  }, {
    "type" : "Feature",
    "id" : "vA_stseg_1694",
    "geometry" : {
      "type" : "LineString",
      "coordinates" : [ [ 37.63387766958034, 55.6976402635771 ], [ 37.63292409051254, 55.69770271109626 ], [ 37.63285990287252, 55.697686468609916 ], [ 37.632149614368004, 55.69699028048739 ], [ 37.63207572503339, 55.696961372935206 ], [ 37.63205386776575, 55.69696583894248 ], [ 37.63203443949898, 55.69704568983144 ] ]
    },
    "properties" : {
      "id" : "vA_stseg_1694",
      "object_type" : "heat_network",
      "variant_id" : "vA",
      "start_node_id" : "vA_stch_1646",
      "end_node_id" : 15,
      "flow_tph" : 31.89,
      "diameter" : 125,
      "length" : 170.2770389914103,
      "laying_method" : "base",
      "depth_start" : 3.0,
      "depth_end" : 3.0,
      "cost" : 16563699,
      "construction_cost" : 16563699,
      "k_spec" : 1.0
    }
  }, {
    "type" : "Feature",
    "id" : "vA_stseg_1660",
    "geometry" : {
      "type" : "LineString",
      "coordinates" : [ [ 37.63448764681212, 55.697368694239756 ], [ 37.6344462678961, 55.6972523917077 ] ]
    },
    "properties" : {
      "id" : "vA_stseg_1660",
      "object_type" : "heat_network",
      "variant_id" : "vA",
      "start_node_id" : "vA_stch_1658",
      "end_node_id" : 9,
      "flow_tph" : 34.53,
      "diameter" : 125,
      "length" : 13.20342821811972,
      "laying_method" : "base",
      "depth_start" : 3.0,
      "depth_end" : 3.0,
      "cost" : 1284363,
      "construction_cost" : 1284363,
      "k_spec" : 1.0
    }
  }, {
    "type" : "Feature",
    "id" : "vA_stseg_1661",
    "geometry" : {
      "type" : "LineString",
      "coordinates" : [ [ 37.63448764681212, 55.697368694239756 ], [ 37.63554245953969, 55.69727583729304 ], [ 37.6360932402107, 55.697296569490895 ] ]
    },
    "properties" : {
      "id" : "vA_stseg_1661",
      "object_type" : "heat_network",
      "variant_id" : "vA",
      "start_node_id" : "vA_stch_1658",
      "end_node_id" : 10,
      "flow_tph" : 33.14,
      "diameter" : 125,
      "length" : 101.805154733714,
      "laying_method" : "base",
      "depth_start" : 3.0,
      "depth_end" : 3.0,
      "cost" : 9903096,
      "construction_cost" : 9903096,
      "k_spec" : 1.0
    }
  }, {
    "type" : "Feature",
    "id" : "vA_stseg_1676",
    "geometry" : {
      "type" : "LineString",
      "coordinates" : [ [ 37.63408737680749, 55.69951200481671 ], [ 37.63315134342615, 55.69971331894042 ] ]
    },
    "properties" : {
      "id" : "vA_stseg_1676",
      "object_type" : "heat_network",
      "variant_id" : "vA",
      "start_node_id" : "vA_stch_1671",
      "end_node_id" : "vA_stch_1675",
      "flow_tph" : 67.52,
      "diameter" : 200,
      "length" : 62.957871585893635,
      "laying_method" : "base",
      "depth_start" : 3.0,
      "depth_end" : 3.0,
      "cost" : 7572258,
      "construction_cost" : 7572258,
      "k_spec" : 1.0
    }
  }, {
    "type" : "Feature",
    "id" : "vA_stseg_1689",
    "geometry" : {
      "type" : "LineString",
      "coordinates" : [ [ 37.63408737680749, 55.69951200481671 ], [ 37.634101578821856, 55.69985296544968 ], [ 37.63450233897922, 55.70012947592353 ], [ 37.63454979706634, 55.700141494479816 ] ]
    },
    "properties" : {
      "id" : "vA_stseg_1689",
      "object_type" : "heat_network",
      "variant_id" : "vA",
      "start_node_id" : "vA_stch_1671",
      "end_node_id" : "vA_stch_1688",
      "flow_tph" : 66.46,
      "diameter" : 200,
      "length" : 80.99999999992554,
      "laying_method" : "base",
      "depth_start" : 3.0,
      "depth_end" : 3.0,
      "cost" : 9742275,
      "construction_cost" : 9742275,
      "k_spec" : 1.0
    }
  }, {
    "type" : "Feature",
    "id" : "vA_stseg_1696",
    "geometry" : {
      "type" : "LineString",
      "coordinates" : [ [ 37.63408737680749, 55.69951200481671 ], [ 37.63417311695148, 55.699632203733536 ], [ 37.634237403994014, 55.699648484504706 ], [ 37.634384055786526, 55.69961744664096 ], [ 37.6344054041544, 55.69948106445311 ] ]
    },
    "properties" : {
      "id" : "vA_stseg_1696",
      "object_type" : "heat_network",
      "variant_id" : "vA",
      "start_node_id" : "vA_stch_1671",
      "end_node_id" : 1,
      "flow_tph" : 24.87,
      "diameter" : 125,
      "length" : 43.934490317069766,
      "laying_method" : "base",
      "depth_start" : 3.0,
      "depth_end" : 3.0,
      "cost" : 4273728,
      "construction_cost" : 4273728,
      "k_spec" : 1.0
    }
  }, {
    "type" : "Feature",
    "id" : "vA_stseg_1680",
    "geometry" : {
      "type" : "LineString",
      "coordinates" : [ [ 37.63315134342615, 55.69971331894042 ], [ 37.632967506708155, 55.70009476420869 ] ]
    },
    "properties" : {
      "id" : "vA_stseg_1680",
      "object_type" : "heat_network",
      "variant_id" : "vA",
      "start_node_id" : "vA_stch_1675",
      "end_node_id" : "vA_stch_1679",
      "flow_tph" : 63.44,
      "diameter" : 150,
      "length" : 44.0000000000342,
      "laying_method" : "base",
      "depth_start" : 3.0,
      "depth_end" : 3.0,
      "cost" : 4642308,
      "construction_cost" : 4642308,
      "k_spec" : 1.0
    }
  }, {
    "type" : "Feature",
    "id" : "vA_stseg_1697",
    "geometry" : {
      "type" : "LineString",
      "coordinates" : [ [ 37.63315134342615, 55.69971331894042 ], [ 37.63308376538291, 55.69969619923118 ], [ 37.63306510539957, 55.699669626421496 ], [ 37.6332044989075, 55.699575075115 ] ]
    },
    "properties" : {
      "id" : "vA_stseg_1697",
      "object_type" : "heat_network",
      "variant_id" : "vA",
      "start_node_id" : "vA_stch_1675",
      "end_node_id" : 11,
      "flow_tph" : 4.08,
      "diameter" : 65,
      "length" : 21.53089966363514,
      "laying_method" : "base",
      "depth_start" : 3.0,
      "depth_end" : 3.0,
      "cost" : 1692996,
      "construction_cost" : 1692996,
      "k_spec" : 1.0
    }
  }, {
    "type" : "Feature",
    "id" : "vA_stseg_1701",
    "geometry" : {
      "type" : "LineString",
      "coordinates" : [ [ 37.63454979706634, 55.700141494479816 ], [ 37.63457009044549, 55.700143482772354 ], [ 37.63486885644535, 55.70007924985275 ], [ 37.63489744761763, 55.70004324005886 ], [ 37.63486710930946, 55.699884375861885 ], [ 37.6345829261805, 55.6998544638392 ] ]
    },
    "properties" : {
      "id" : "vA_stseg_1701",
      "object_type" : "heat_network",
      "variant_id" : "vA",
      "start_node_id" : "vA_stch_1688",
      "end_node_id" : 2,
      "flow_tph" : 18.76,
      "diameter" : 100,
      "length" : 61.73559626463661,
      "laying_method" : "base",
      "depth_start" : 3.0,
      "depth_end" : 3.0,
      "cost" : 5540646,
      "construction_cost" : 5540646,
      "k_spec" : 1.0
    }
  }, {
    "type" : "Feature",
    "id" : "vA_stseg_1703",
    "geometry" : {
      "type" : "LineString",
      "coordinates" : [ [ 37.63454979706634, 55.700141494479816 ], [ 37.63468729847762, 55.70039720740371 ], [ 37.63480037765463, 55.70056515967504 ], [ 37.63486499820811, 55.70058153181666 ], [ 37.63581482020905, 55.70037716919288 ], [ 37.63633819729075, 55.70026047644128 ], [ 37.6363818514204, 55.700155199014695 ] ]
    },
    "properties" : {
      "id" : "vA_stseg_1703",
      "object_type" : "heat_network",
      "variant_id" : "vA",
      "start_node_id" : "vA_stch_1688",
      "end_node_id" : 4,
      "flow_tph" : 47.7,
      "diameter" : 150,
      "length" : 165.48542151574028,
      "laying_method" : "base",
      "depth_start" : 3.0,
      "depth_end" : 3.0,
      "cost" : 17459870,
      "construction_cost" : 17459870,
      "k_spec" : 1.0
    }
  }, {
    "type" : "Feature",
    "id" : "vA_stseg_1684",
    "geometry" : {
      "type" : "LineString",
      "coordinates" : [ [ 37.632967506708155, 55.70009476420869 ], [ 37.63284625839262, 55.70009155030314 ], [ 37.63253448362684, 55.70015850742054 ], [ 37.63235221942691, 55.70025103161229 ] ]
    },
    "properties" : {
      "id" : "vA_stseg_1684",
      "object_type" : "heat_network",
      "variant_id" : "vA",
      "start_node_id" : "vA_stch_1679",
      "end_node_id" : "vA_stch_1683",
      "flow_tph" : 34.02,
      "diameter" : 125,
      "length" : 44.000000000005805,
      "laying_method" : "base",
      "depth_start" : 3.0,
      "depth_end" : 3.0,
      "cost" : 4280100,
      "construction_cost" : 4280100,
      "k_spec" : 1.0
    }
  }, {
    "type" : "Feature",
    "id" : "vA_stseg_1698",
    "geometry" : {
      "type" : "LineString",
      "coordinates" : [ [ 37.632967506708155, 55.70009476420869 ], [ 37.63294389960349, 55.70014374633659 ], [ 37.63296587604119, 55.700184407464775 ], [ 37.6328466024688, 55.700275760196696 ] ]
    },
    "properties" : {
      "id" : "vA_stseg_1698",
      "object_type" : "heat_network",
      "variant_id" : "vA",
      "start_node_id" : "vA_stch_1679",
      "end_node_id" : 3,
      "flow_tph" : 29.42,
      "diameter" : 125,
      "length" : 23.014704795861785,
      "laying_method" : "base",
      "depth_start" : 3.0,
      "depth_end" : 3.0,
      "cost" : 2238755,
      "construction_cost" : 2238755,
      "k_spec" : 1.0
    }
  }, {
    "type" : "Feature",
    "id" : "vA_stseg_1685",
    "geometry" : {
      "type" : "LineString",
      "coordinates" : [ [ 37.63235221942691, 55.70025103161229 ], [ 37.63232076721293, 55.70026699787186 ], [ 37.632202633606305, 55.70031441743034 ] ]
    },
    "properties" : {
      "id" : "vA_stseg_1685",
      "object_type" : "heat_network",
      "variant_id" : "vA",
      "start_node_id" : "vA_stch_1683",
      "end_node_id" : 8,
      "flow_tph" : 18.03,
      "diameter" : 100,
      "length" : 11.768218059606268,
      "laying_method" : "base",
      "depth_start" : 3.0,
      "depth_end" : 3.0,
      "cost" : 1056174,
      "construction_cost" : 1056174,
      "k_spec" : 1.0
    }
  }, {
    "type" : "Feature",
    "id" : "vA_stseg_1699",
    "geometry" : {
      "type" : "LineString",
      "coordinates" : [ [ 37.63235221942691, 55.70025103161229 ], [ 37.632012226474316, 55.70004826125506 ] ]
    },
    "properties" : {
      "id" : "vA_stseg_1699",
      "object_type" : "heat_network",
      "variant_id" : "vA",
      "start_node_id" : "vA_stch_1683",
      "end_node_id" : 6,
      "flow_tph" : 15.99,
      "diameter" : 100,
      "length" : 31.08123535156927,
      "laying_method" : "base",
      "depth_start" : 3.0,
      "depth_end" : 3.0,
      "cost" : 2789479,
      "construction_cost" : 2789479,
      "k_spec" : 1.0
    }
  }, {
    "type" : "Feature",
    "id" : "vA_stch_1671",
    "geometry" : {
      "type" : "Point",
      "coordinates" : [ 37.63408737680749, 55.69951200481671 ]
    },
    "properties" : {
      "id" : "vA_stch_1671",
      "object_type" : "heat_chamber",
      "variant_id" : "vA",
      "diameter" : 250,
      "cost" : 5000000
    }
  }, {
    "type" : "Feature",
    "id" : "vA_stch_1652",
    "geometry" : {
      "type" : "Point",
      "coordinates" : [ 37.63402888262229, 55.69763980669072 ]
    },
    "properties" : {
      "id" : "vA_stch_1652",
      "object_type" : "heat_chamber",
      "variant_id" : "vA",
      "diameter" : 200,
      "cost" : 3000000
    }
  }, {
    "type" : "Feature",
    "id" : "vA_stch_1675",
    "geometry" : {
      "type" : "Point",
      "coordinates" : [ 37.63315134342615, 55.69971331894042 ]
    },
    "properties" : {
      "id" : "vA_stch_1675",
      "object_type" : "heat_chamber",
      "variant_id" : "vA",
      "diameter" : 200,
      "cost" : 3000000
    }
  }, {
    "type" : "Feature",
    "id" : "vA_stch_1646",
    "geometry" : {
      "type" : "Point",
      "coordinates" : [ 37.63387766958034, 55.6976402635771 ]
    },
    "properties" : {
      "id" : "vA_stch_1646",
      "object_type" : "heat_chamber",
      "variant_id" : "vA",
      "diameter" : 200,
      "cost" : 3000000
    }
  }, {
    "type" : "Feature",
    "id" : "vA_stch_1629",
    "geometry" : {
      "type" : "Point",
      "coordinates" : [ 37.63821833089452, 55.69786490241139 ]
    },
    "properties" : {
      "id" : "vA_stch_1629",
      "object_type" : "heat_chamber",
      "variant_id" : "vA",
      "diameter" : 300,
      "cost" : 5000000
    }
  }, {
    "type" : "Feature",
    "id" : "vA_stch_1683",
    "geometry" : {
      "type" : "Point",
      "coordinates" : [ 37.63235221942691, 55.70025103161229 ]
    },
    "properties" : {
      "id" : "vA_stch_1683",
      "object_type" : "heat_chamber",
      "variant_id" : "vA",
      "diameter" : 125,
      "cost" : 3000000
    }
  }, {
    "type" : "Feature",
    "id" : "vA_stch_1688",
    "geometry" : {
      "type" : "Point",
      "coordinates" : [ 37.63454979706634, 55.700141494479816 ]
    },
    "properties" : {
      "id" : "vA_stch_1688",
      "object_type" : "heat_chamber",
      "variant_id" : "vA",
      "diameter" : 200,
      "cost" : 3000000
    }
  }, {
    "type" : "Feature",
    "id" : "vA_stch_1667",
    "geometry" : {
      "type" : "Point",
      "coordinates" : [ 37.63364544789306, 55.698636701132486 ]
    },
    "properties" : {
      "id" : "vA_stch_1667",
      "object_type" : "heat_chamber",
      "variant_id" : "vA",
      "diameter" : 250,
      "cost" : 5000000
    }
  }, {
    "type" : "Feature",
    "id" : "vA_stch_1679",
    "geometry" : {
      "type" : "Point",
      "coordinates" : [ 37.632967506708155, 55.70009476420869 ]
    },
    "properties" : {
      "id" : "vA_stch_1679",
      "object_type" : "heat_chamber",
      "variant_id" : "vA",
      "diameter" : 150,
      "cost" : 3000000
    }
  }, {
    "type" : "Feature",
    "id" : "vA_stch_1658",
    "geometry" : {
      "type" : "Point",
      "coordinates" : [ 37.63448764681212, 55.697368694239756 ]
    },
    "properties" : {
      "id" : "vA_stch_1658",
      "object_type" : "heat_chamber",
      "variant_id" : "vA",
      "diameter" : 200,
      "cost" : 3000000
    }
  }, {
    "type" : "Feature",
    "id" : "vA_stch_1637",
    "geometry" : {
      "type" : "Point",
      "coordinates" : [ 37.635370489547455, 55.69847046712156 ]
    },
    "properties" : {
      "id" : "vA_stch_1637",
      "object_type" : "heat_chamber",
      "variant_id" : "vA",
      "diameter" : 300,
      "cost" : 5000000
    }
  }, {
    "type" : "Feature",
    "id" : "vA_nch_tie_p_126_65_1569",
    "geometry" : {
      "type" : "Point",
      "coordinates" : [ 37.63855405691722, 55.69777663242227 ]
    },
    "properties" : {
      "id" : "vA_nch_tie_p_126_65_1569",
      "object_type" : "heat_chamber",
      "variant_id" : "vA",
      "diameter" : 400,
      "cost" : 5000000
    }
  }, {
    "type" : "Feature",
    "id" : "vA_stseg_1704",
    "geometry" : {
      "type" : "LineString",
      "coordinates" : [ [ 37.6380432487374, 55.697068280899 ], [ 37.63937527878107, 55.696779480920505 ], [ 37.639538146115, 55.6968518286392 ] ]
    },
    "properties" : {
      "id" : "vA_stseg_1704",
      "object_type" : "heat_network",
      "variant_id" : "vA",
      "start_node_id" : "vA_nch_tie_p_129_33_1603",
      "end_node_id" : 17,
      "flow_tph" : 20.63,
      "diameter" : 100,
      "length" : 102.71544846066884,
      "laying_method" : "base",
      "depth_start" : 3.0,
      "depth_end" : 3.0,
      "cost" : 9218506,
      "construction_cost" : 9218506,
      "k_spec" : 1.0
    }
  }, {
    "type" : "Feature",
    "id" : "vA_nch_tie_p_129_33_1603",
    "geometry" : {
      "type" : "Point",
      "coordinates" : [ 37.6380432487374, 55.697068280899 ]
    },
    "properties" : {
      "id" : "vA_nch_tie_p_129_33_1603",
      "object_type" : "heat_chamber",
      "variant_id" : "vA",
      "diameter" : 400,
      "cost" : 5000000
    }
  }, {
    "type" : "Feature",
    "id" : "vA_stseg_1705",
    "geometry" : {
      "type" : "LineString",
      "coordinates" : [ [ 37.63998799936458, 55.69926893601546 ], [ 37.64049510937941, 55.699341847486004 ], [ 37.6406068766364, 55.69934347422283 ], [ 37.6408221046479, 55.699320647762306 ], [ 37.64129754013057, 55.69920230597269 ], [ 37.64141272282374, 55.699093837212175 ], [ 37.64139474027043, 55.69905325819216 ], [ 37.641101337715405, 55.69858843088967 ], [ 37.64102827047083, 55.698480137140294 ], [ 37.64097567414048, 55.69846081112511 ], [ 37.64076446632709, 55.6984073918225 ] ]
    },
    "properties" : {
      "id" : "vA_stseg_1705",
      "object_type" : "heat_network",
      "variant_id" : "vA",
      "start_node_id" : 109,
      "end_node_id" : 16,
      "flow_tph" : 76.27,
      "diameter" : 200,
      "length" : 191.39092978644052,
      "laying_method" : "base",
      "depth_start" : 3.0,
      "depth_end" : 3.0,
      "cost" : 23019544,
      "construction_cost" : 23019544,
      "k_spec" : 1.0
    }
  }, {
    "type" : "Feature",
    "id" : "summary_vA",
    "geometry" : null,
    "properties" : {
      "id" : "summary_vA",
      "object_type" : "variant_summary",
      "variant_id" : "vA",
      "rank" : 1,
      "construction_cost" : 268219345,
      "chamber_construction_cost" : 51000000,
      "existing_chamber_tie_in_count" : 1,
      "existing_chamber_tie_in_cost" : 5000000,
      "unconnected_penalty" : 0,
      "calculated_cost" : 268219345,
      "new_network_length" : 1865.1287848364698,
      "score" : 13.1055,
      "unconnected_oks_ids" : [ ]
    }
  } ]
}