{
  "type" : "FeatureCollection",
  "features" : [ {
    "type" : "Feature",
    "id" : "vC_stseg_1816",
    "geometry" : {
      "type" : "LineString",
      "coordinates" : [ [ 37.638554351597755, 55.697777087661585 ], [ 37.63837680037532, 55.697813745594765 ], [ 37.63821833089452, 55.69786490241139 ] ]
    },
    "properties" : {
      "id" : "vC_stseg_1816",
      "object_type" : "heat_network",
      "variant_id" : "vC",
      "start_node_id" : "vC_nch_tie_p_126_65_1755",
      "end_node_id" : "vC_stch_1815",
      "flow_tph" : 212.91,
      "diameter" : 250,
      "length" : 23.356885398525108,
      "laying_method" : "base",
      "depth_start" : 3.0,
      "depth_end" : 3.0,
      "cost" : 3160724,
      "construction_cost" : 3160724,
      "k_spec" : 1.0
    }
  }, {
    "type" : "Feature",
    "id" : "vC_stseg_1817",
    "geometry" : {
      "type" : "LineString",
      "coordinates" : [ [ 37.63821833089452, 55.69786490241139 ], [ 37.6382803042186, 55.69795678628921 ] ]
    },
    "properties" : {
      "id" : "vC_stseg_1817",
      "object_type" : "heat_network",
      "variant_id" : "vC",
      "start_node_id" : "vC_stch_1815",
      "end_node_id" : 7,
      "flow_tph" : 27.82,
      "diameter" : 125,
      "length" : 10.94366736928523,
      "laying_method" : "base",
      "depth_start" : 3.0,
      "depth_end" : 3.0,
      "cost" : 1064545,
      "construction_cost" : 1064545,
      "k_spec" : 1.0
    }
  }, {
    "type" : "Feature",
    "id" : "vC_stseg_1823",
    "geometry" : {
      "type" : "LineString",
      "coordinates" : [ [ 37.63821833089452, 55.69786490241139 ], [ 37.63807946953575, 55.69787770985323 ], [ 37.635370489547455, 55.69847046712156 ] ]
    },
    "properties" : {
      "id" : "vC_stseg_1823",
      "object_type" : "heat_network",
      "variant_id" : "vC",
      "start_node_id" : "vC_stch_1815",
      "end_node_id" : "vC_stch_1822",
      "flow_tph" : 185.09,
      "diameter" : 250,
      "length" : 191.46128014675526,
      "laying_method" : "base",
      "depth_start" : 3.0,
      "depth_end" : 3.0,
      "cost" : 25909115,
      "construction_cost" : 25909115,
      "k_spec" : 1.0
    }
  }, {
    "type" : "Feature",
    "id" : "vC_stseg_1824",
    "geometry" : {
      "type" : "LineString",
      "coordinates" : [ [ 37.635370489547455, 55.69847046712156 ], [ 37.6354170560464, 55.6986147317495 ] ]
    },
    "properties" : {
      "id" : "vC_stseg_1824",
      "object_type" : "heat_network",
      "variant_id" : "vC",
      "start_node_id" : "vC_stch_1822",
      "end_node_id" : 5,
      "flow_tph" : 26.09,
      "diameter" : 125,
      "length" : 16.321534082619703,
      "laying_method" : "base",
      "depth_start" : 3.0,
      "depth_end" : 3.0,
      "cost" : 1587677,
      "construction_cost" : 1587677,
      "k_spec" : 1.0
    }
  }, {
    "type" : "Feature",
    "id" : "vC_stseg_1875",
    "geometry" : {
      "type" : "LineString",
      "coordinates" : [ [ 37.635370489547455, 55.69847046712156 ], [ 37.63489990375791, 55.69831400217802 ], [ 37.63466371636192, 55.698021749746765 ], [ 37.63438284047432, 55.697558038575 ], [ 37.63448764681212, 55.697368694239756 ] ]
    },
    "properties" : {
      "id" : "vC_stseg_1875",
      "object_type" : "heat_network",
      "variant_id" : "vC",
      "start_node_id" : "vC_stch_1822",
      "end_node_id" : "vC_stch_1874",
      "flow_tph" : 67.67,
      "diameter" : 200,
      "length" : 146.71043349503987,
      "laying_method" : "base",
      "depth_start" : 3.0,
      "depth_end" : 3.0,
      "cost" : 17645597,
      "construction_cost" : 17645597,
      "k_spec" : 1.0
    }
  }, {
    "type" : "Feature",
    "id" : "vC_stseg_1976",
    "geometry" : {
      "type" : "LineString",
      "coordinates" : [ [ 37.635370489547455, 55.69847046712156 ], [ 37.63508424785037, 55.69853282029858 ], [ 37.63505420575002, 55.698570657845565 ], [ 37.63522102788145, 55.69940777197258 ], [ 37.63519098222603, 55.699445613582185 ] ]
    },
    "properties" : {
      "id" : "vC_stseg_1976",
      "object_type" : "heat_network",
      "variant_id" : "vC",
      "start_node_id" : "vC_stch_1822",
      "end_node_id" : "vC_stch_1975",
      "flow_tph" : 91.33,
      "diameter" : 200,
      "length" : 122.27650349959639,
      "laying_method" : "base",
      "depth_start" : 3.0,
      "depth_end" : 3.0,
      "cost" : 14706806,
      "construction_cost" : 14706806,
      "k_spec" : 1.0
    }
  }, {
    "type" : "Feature",
    "id" : "vC_stseg_1876",
    "geometry" : {
      "type" : "LineString",
      "coordinates" : [ [ 37.63448764681212, 55.697368694239756 ], [ 37.6344462678961, 55.6972523917077 ] ]
    },
    "properties" : {
      "id" : "vC_stseg_1876",
      "object_type" : "heat_network",
      "variant_id" : "vC",
      "start_node_id" : "vC_stch_1874",
      "end_node_id" : 9,
      "flow_tph" : 34.53,
      "diameter" : 125,
      "length" : 13.20342821811972,
      "laying_method" : "base",
      "depth_start" : 3.0,
      "depth_end" : 3.0,
      "cost" : 1284363,
      "construction_cost" : 1284363,
      "k_spec" : 1.0
    }
  }, {
    "type" : "Feature",
    "id" : "vC_stseg_1877",
    "geometry" : {
      "type" : "LineString",
      "coordinates" : [ [ 37.63448764681212, 55.697368694239756 ], [ 37.635546427819456, 55.69727598667386 ], [ 37.6360932402107, 55.697296569490895 ] ]
    },
    "properties" : {
      "id" : "vC_stseg_1877",
      "object_type" : "heat_network",
      "variant_id" : "vC",
      "start_node_id" : "vC_stch_1874",
      "end_node_id" : 10,
      "flow_tph" : 33.14,
      "diameter" : 125,
      "length" : 101.79908636437978,
      "laying_method" : "base",
      "depth_start" : 3.0,
      "depth_end" : 3.0,
      "cost" : 9902506,
      "construction_cost" : 9902506,
      "k_spec" : 1.0
    }
  }, {
    "type" : "Feature",
    "id" : "vC_stseg_2028",
    "geometry" : {
      "type" : "LineString",
      "coordinates" : [ [ 37.63519098222603, 55.699445613582185 ], [ 37.63452710945902, 55.69958893563059 ] ]
    },
    "properties" : {
      "id" : "vC_stseg_2028",
      "object_type" : "heat_network",
      "variant_id" : "vC",
      "start_node_id" : "vC_stch_1975",
      "end_node_id" : "vC_stch_2027",
      "flow_tph" : 43.63,
      "diameter" : 150,
      "length" : 44.6738610495497,
      "laying_method" : "base",
      "depth_start" : 3.0,
      "depth_end" : 3.0,
      "cost" : 4713405,
      "construction_cost" : 4713405,
      "k_spec" : 1.0
    }
  }, {
    "type" : "Feature",
    "id" : "vC_stseg_2108",
    "geometry" : {
      "type" : "LineString",
      "coordinates" : [ [ 37.63519098222603, 55.699445613582185 ], [ 37.63621395391508, 55.70025759232262 ], [ 37.636280953717076, 55.70027455835457 ], [ 37.63633729043852, 55.70026266342323 ], [ 37.6363818514204, 55.700155199014695 ] ]
    },
    "properties" : {
      "id" : "vC_stseg_2108",
      "object_type" : "heat_network",
      "variant_id" : "vC",
      "start_node_id" : "vC_stch_1975",
      "end_node_id" : 4,
      "flow_tph" : 47.7,
      "diameter" : 150,
      "length" : 131.5950042893221,
      "laying_method" : "base",
      "depth_start" : 3.0,
      "depth_end" : 3.0,
      "cost" : 13884194,
      "construction_cost" : 13884194,
      "k_spec" : 1.0
    }
  }, {
    "type" : "Feature",
    "id" : "vC_stseg_2029",
    "geometry" : {
      "type" : "LineString",
      "coordinates" : [ [ 37.63452710945902, 55.69958893563059 ], [ 37.6344054041544, 55.69948106445311 ] ]
    },
    "properties" : {
      "id" : "vC_stseg_2029",
      "object_type" : "heat_network",
      "variant_id" : "vC",
      "start_node_id" : "vC_stch_2027",
      "end_node_id" : 1,
      "flow_tph" : 24.87,
      "diameter" : 125,
      "length" : 14.23630647059389,
      "laying_method" : "base",
      "depth_start" : 3.0,
      "depth_end" : 3.0,
      "cost" : 1384837,
      "construction_cost" : 1384837,
      "k_spec" : 1.0
    }
  }, {
    "type" : "Feature",
    "id" : "vC_stseg_2110",
    "geometry" : {
      "type" : "LineString",
      "coordinates" : [ [ 37.63452710945902, 55.69958893563059 ], [ 37.63432141209843, 55.69977480947952 ], [ 37.634292852191415, 55.699810805906694 ], [ 37.634506346046706, 55.70012733978527 ], [ 37.63457009044549, 55.700143482772354 ], [ 37.63486885644535, 55.70007924985275 ], [ 37.63489744761763, 55.70004324005886 ], [ 37.63486710930946, 55.699884375861885 ], [ 37.6345829261805, 55.6998544638392 ] ]
    },
    "properties" : {
      "id" : "vC_stseg_2110",
      "object_type" : "heat_network",
      "variant_id" : "vC",
      "start_node_id" : "vC_stch_2027",
      "end_node_id" : 2,
      "flow_tph" : 18.76,
      "diameter" : 100,
      "length" : 131.3183819300185,
      "laying_method" : "base",
      "depth_start" : 3.0,
      "depth_end" : 3.0,
      "cost" : 11785562,
      "construction_cost" : 11785562,
      "k_spec" : 1.0
    }
  }, {
    "type" : "Feature",
    "id" : "vC_stch_1874",
    "geometry" : {
      "type" : "Point",
      "coordinates" : [ 37.63448764681212, 55.697368694239756 ]
    },
    "properties" : {
      "id" : "vC_stch_1874",
      "object_type" : "heat_chamber",
      "variant_id" : "vC",
      "diameter" : 200,
      "cost" : 3000000
    }
  }, {
    "type" : "Feature",
    "id" : "vC_stch_2027",
    "geometry" : {
      "type" : "Point",
      "coordinates" : [ 37.63452710945902, 55.69958893563059 ]
    },
    "properties" : {
      "id" : "vC_stch_2027",
      "object_type" : "heat_chamber",
      "variant_id" : "vC",
      "diameter" : 150,
      "cost" : 3000000
    }
  }, {
    "type" : "Feature",
    "id" : "vC_stch_1975",
    "geometry" : {
      "type" : "Point",
      "coordinates" : [ 37.63519098222603, 55.699445613582185 ]
    },
    "properties" : {
      "id" : "vC_stch_1975",
      "object_type" : "heat_chamber",
      "variant_id" : "vC",
      "diameter" : 200,
      "cost" : 3000000
    }
  }, {
    "type" : "Feature",
    "id" : "vC_stch_1822",
    "geometry" : {
      "type" : "Point",
      "coordinates" : [ 37.635370489547455, 55.69847046712156 ]
    },
    "properties" : {
      "id" : "vC_stch_1822",
      "object_type" : "heat_chamber",
      "variant_id" : "vC",
      "diameter" : 250,
      "cost" : 5000000
    }
  }, {
    "type" : "Feature",
    "id" : "vC_stch_1815",
    "geometry" : {
      "type" : "Point",
      "coordinates" : [ 37.63821833089452, 55.69786490241139 ]
    },
    "properties" : {
      "id" : "vC_stch_1815",
      "object_type" : "heat_chamber",
      "variant_id" : "vC",
      "diameter" : 250,
      "cost" : 5000000
    }
  }, {
    "type" : "Feature",
    "id" : "vC_nch_tie_p_126_65_1755",
    "geometry" : {
      "type" : "Point",
      "coordinates" : [ 37.638554351597755, 55.697777087661585 ]
    },
    "properties" : {
      "id" : "vC_nch_tie_p_126_65_1755",
      "object_type" : "heat_chamber",
      "variant_id" : "vC",
      "diameter" : 400,
      "cost" : 5000000
    }
  }, {
    "type" : "Feature",
    "id" : "vC_stseg_2111",
    "geometry" : {
      "type" : "LineString",
      "coordinates" : [ [ 37.638043564076824, 55.697068744154585 ], [ 37.63937527878107, 55.696779480920505 ], [ 37.639538146115, 55.6968518286392 ] ]
    },
    "properties" : {
      "id" : "vC_stseg_2111",
      "object_type" : "heat_network",
      "variant_id" : "vC",
      "start_node_id" : "vC_nch_tie_p_129_33_1787",
      "end_node_id" : 17,
      "flow_tph" : 20.63,
      "diameter" : 100,
      "length" : 102.71543826348181,
      "laying_method" : "base",
      "depth_start" : 3.0,
      "depth_end" : 3.0,
      "cost" : 9218505,
      "construction_cost" : 9218505,
      "k_spec" : 1.0
    }
  }, {
    "type" : "Feature",
    "id" : "vC_nch_tie_p_129_33_1787",
    "geometry" : {
      "type" : "Point",
      "coordinates" : [ 37.638043564076824, 55.697068744154585 ]
    },
    "properties" : {
      "id" : "vC_nch_tie_p_129_33_1787",
      "object_type" : "heat_chamber",
      "variant_id" : "vC",
      "diameter" : 400,
      "cost" : 5000000
    }
  }, {
    "type" : "Feature",
    "id" : "vC_stseg_2112",
    "geometry" : {
      "type" : "LineString",
      "coordinates" : [ [ 37.63998799936458, 55.69926893601546 ], [ 37.64049523453066, 55.69934136613039 ], [ 37.64060700316192, 55.69934299306905 ], [ 37.64082127729908, 55.699320496611406 ], [ 37.641297025769944, 55.69920191596712 ], [ 37.641411871191316, 55.69909376580232 ], [ 37.64139404859186, 55.699053547728724 ], [ 37.641100477082205, 55.69858841696156 ], [ 37.64102764447925, 55.69848047097397 ], [ 37.640986563614995, 55.69846356530933 ], [ 37.64076446632709, 55.6984073918225 ] ]
    },
    "properties" : {
      "id" : "vC_stseg_2112",
      "object_type" : "heat_network",
      "variant_id" : "vC",
      "start_node_id" : 109,
      "end_node_id" : 16,
      "flow_tph" : 76.27,
      "diameter" : 200,
      "length" : 191.26057345295712,
      "laying_method" : "base",
      "depth_start" : 3.0,
      "depth_end" : 3.0,
      "cost" : 23003865,
      "construction_cost" : 23003865,
      "k_spec" : 1.0
    }
  }, {
    "type" : "Feature",
    "id" : "vC_stseg_2081",
    "geometry" : {
      "type" : "LineString",
      "coordinates" : [ [ 37.636558586489386, 55.69497149089125 ], [ 37.633222916293825, 55.695788713268314 ], [ 37.63227983100064, 55.696218892798505 ], [ 37.6322493420577, 55.69625722863718 ], [ 37.632035535794465, 55.696851996815745 ] ]
    },
    "properties" : {
      "id" : "vC_stseg_2081",
      "object_type" : "heat_network",
      "variant_id" : "vC",
      "start_node_id" : 112,
      "end_node_id" : "vC_stch_2080",
      "flow_tph" : 178.91,
      "diameter" : 250,
      "length" : 376.9999999999302,
      "laying_method" : "base",
      "depth_start" : 3.0,
      "depth_end" : 3.0,
      "cost" : 51016771,
      "construction_cost" : 51016771,
      "k_spec" : 1.0
    }
  }, {
    "type" : "Feature",
    "id" : "vC_stseg_2089",
    "geometry" : {
      "type" : "LineString",
      "coordinates" : [ [ 37.632035535794465, 55.696851996815745 ], [ 37.6328570884369, 55.69768797156528 ], [ 37.63290911346864, 55.697701136387316 ] ]
    },
    "properties" : {
      "id" : "vC_stseg_2089",
      "object_type" : "heat_network",
      "variant_id" : "vC",
      "start_node_id" : "vC_stch_2080",
      "end_node_id" : "vC_stch_2088",
      "flow_tph" : 147.02,
      "diameter" : 200,
      "length" : 110.00000000016811,
      "laying_method" : "base",
      "depth_start" : 3.0,
      "depth_end" : 3.0,
      "cost" : 13230250,
      "construction_cost" : 13230250,
      "k_spec" : 1.0
    }
  }, {
    "type" : "Feature",
    "id" : "vC_stseg_2113",
    "geometry" : {
      "type" : "LineString",
      "coordinates" : [ [ 37.632035535794465, 55.696851996815745 ], [ 37.63204056314539, 55.69696614560942 ], [ 37.63203443949898, 55.69704568983144 ] ]
    },
    "properties" : {
      "id" : "vC_stseg_2113",
      "object_type" : "heat_network",
      "variant_id" : "vC",
      "start_node_id" : "vC_stch_2080",
      "end_node_id" : 15,
      "flow_tph" : 31.89,
      "diameter" : 125,
      "length" : 21.570688904002093,
      "laying_method" : "base",
      "depth_start" : 3.0,
      "depth_end" : 3.0,
      "cost" : 2098289,
      "construction_cost" : 2098289,
      "k_spec" : 1.0
    }
  }, {
    "type" : "Feature",
    "id" : "vC_stseg_2090",
    "geometry" : {
      "type" : "LineString",
      "coordinates" : [ [ 37.63290911346864, 55.697701136387316 ], [ 37.63292397759303, 55.697704897716264 ], [ 37.633401972696284, 55.69762283929866 ], [ 37.633751974657024, 55.69752960365188 ] ]
    },
    "properties" : {
      "id" : "vC_stseg_2090",
      "object_type" : "heat_network",
      "variant_id" : "vC",
      "start_node_id" : "vC_stch_2088",
      "end_node_id" : "vC_stch_2084",
      "flow_tph" : 39.5,
      "diameter" : 125,
      "length" : 56.7533953607981,
      "laying_method" : "base",
      "depth_start" : 3.0,
      "depth_end" : 3.0,
      "cost" : 5520687,
      "construction_cost" : 5520687,
      "k_spec" : 1.0
    }
  }, {
    "type" : "Feature",
    "id" : "vC_stseg_2093",
    "geometry" : {
      "type" : "LineString",
      "coordinates" : [ [ 37.63290911346864, 55.697701136387316 ], [ 37.63324742961085, 55.69862982075339 ] ]
    },
    "properties" : {
      "id" : "vC_stseg_2093",
      "object_type" : "heat_network",
      "variant_id" : "vC",
      "start_node_id" : "vC_stch_2088",
      "end_node_id" : "vC_stch_2092",
      "flow_tph" : 107.52,
      "diameter" : 200,
      "length" : 105.529278803072,
      "laying_method" : "base",
      "depth_start" : 3.0,
      "depth_end" : 3.0,
      "cost" : 12692534,
      "construction_cost" : 12692534,
      "k_spec" : 1.0
    }
  }, {
    "type" : "Feature",
    "id" : "vC_stseg_2086",
    "geometry" : {
      "type" : "LineString",
      "coordinates" : [ [ 37.633751974657024, 55.69752960365188 ], [ 37.63375414371942, 55.69752902583936 ], [ 37.6337524411436, 55.6974723292097 ] ]
    },
    "properties" : {
      "id" : "vC_stseg_2086",
      "object_type" : "heat_network",
      "variant_id" : "vC",
      "start_node_id" : "vC_stch_2084",
      "end_node_id" : 14,
      "flow_tph" : 19.73,
      "diameter" : 100,
      "length" : 6.462100253048924,
      "laying_method" : "base",
      "depth_start" : 3.0,
      "depth_end" : 3.0,
      "cost" : 579961,
      "construction_cost" : 579961,
      "k_spec" : 1.0
    }
  }, {
    "type" : "Feature",
    "id" : "vC_stseg_2087",
    "geometry" : {
      "type" : "LineString",
      "coordinates" : [ [ 37.633751974657024, 55.69752960365188 ], [ 37.6338503096052, 55.69764734572201 ], [ 37.6339010562985, 55.697722607233096 ] ]
    },
    "properties" : {
      "id" : "vC_stseg_2087",
      "object_type" : "heat_network",
      "variant_id" : "vC",
      "start_node_id" : "vC_stch_2084",
      "end_node_id" : 13,
      "flow_tph" : 19.77,
      "diameter" : 100,
      "length" : 23.453112076334566,
      "laying_method" : "base",
      "depth_start" : 3.0,
      "depth_end" : 3.0,
      "cost" : 2104870,
      "construction_cost" : 2104870,
      "k_spec" : 1.0
    }
  }, {
    "type" : "Feature",
    "id" : "vC_stseg_2094",
    "geometry" : {
      "type" : "LineString",
      "coordinates" : [ [ 37.63324742961085, 55.69862982075339 ], [ 37.63313932211122, 55.69865306825248 ] ]
    },
    "properties" : {
      "id" : "vC_stseg_2094",
      "object_type" : "heat_network",
      "variant_id" : "vC",
      "start_node_id" : "vC_stch_2092",
      "end_node_id" : 12,
      "flow_tph" : 40.0,
      "diameter" : 125,
      "length" : 7.271366438966959,
      "laying_method" : "base",
      "depth_start" : 3.0,
      "depth_end" : 3.0,
      "cost" : 707322,
      "construction_cost" : 707322,
      "k_spec" : 1.0
    }
  }, {
    "type" : "Feature",
    "id" : "vC_stseg_2097",
    "geometry" : {
      "type" : "LineString",
      "coordinates" : [ [ 37.63324742961085, 55.69862982075339 ], [ 37.633455289280285, 55.698636818651735 ], [ 37.6335003669772, 55.69959980218967 ], [ 37.63344517846793, 55.6996497076619 ], [ 37.633151368452644, 55.69971283292335 ] ]
    },
    "properties" : {
      "id" : "vC_stseg_2097",
      "object_type" : "heat_network",
      "variant_id" : "vC",
      "start_node_id" : "vC_stch_2092",
      "end_node_id" : "vC_stch_2096",
      "flow_tph" : 67.52,
      "diameter" : 200,
      "length" : 146.61611398486497,
      "laying_method" : "base",
      "depth_start" : 3.0,
      "depth_end" : 3.0,
      "cost" : 17634253,
      "construction_cost" : 17634253,
      "k_spec" : 1.0
    }
  }, {
    "type" : "Feature",
    "id" : "vC_stseg_2101",
    "geometry" : {
      "type" : "LineString",
      "coordinates" : [ [ 37.633151368452644, 55.69971283292335 ], [ 37.63296841952612, 55.70009441429533 ] ]
    },
    "properties" : {
      "id" : "vC_stseg_2101",
      "object_type" : "heat_network",
      "variant_id" : "vC",
      "start_node_id" : "vC_stch_2096",
      "end_node_id" : "vC_stch_2100",
      "flow_tph" : 63.44,
      "diameter" : 150,
      "length" : 44.00000000001766,
      "laying_method" : "base",
      "depth_start" : 3.0,
      "depth_end" : 3.0,
      "cost" : 4642308,
      "construction_cost" : 4642308,
      "k_spec" : 1.0
    }
  }, {
    "type" : "Feature",
    "id" : "vC_stseg_2114",
    "geometry" : {
      "type" : "LineString",
      "coordinates" : [ [ 37.633151368452644, 55.69971283292335 ], [ 37.63308439151022, 55.69969586549247 ], [ 37.63306510539957, 55.699669626421496 ], [ 37.6332044989075, 55.699575075115 ] ]
    },
    "properties" : {
      "id" : "vC_stseg_2114",
      "object_type" : "heat_network",
      "variant_id" : "vC",
      "start_node_id" : "vC_stch_2096",
      "end_node_id" : 11,
      "flow_tph" : 4.08,
      "diameter" : 65,
      "length" : 21.469867694000655,
      "laying_method" : "base",
      "depth_start" : 3.0,
      "depth_end" : 3.0,
      "cost" : 1688197,
      "construction_cost" : 1688197,
      "k_spec" : 1.0
    }
  }, {
    "type" : "Feature",
    "id" : "vC_stseg_2105",
    "geometry" : {
      "type" : "LineString",
      "coordinates" : [ [ 37.63296841952612, 55.70009441429533 ], [ 37.63284623329665, 55.70009203630905 ], [ 37.63253507445624, 55.700158861149745 ], [ 37.63235248290101, 55.700250994598825 ] ]
    },
    "properties" : {
      "id" : "vC_stseg_2105",
      "object_type" : "heat_network",
      "variant_id" : "vC",
      "start_node_id" : "vC_stch_2100",
      "end_node_id" : "vC_stch_2104",
      "flow_tph" : 34.02,
      "diameter" : 125,
      "length" : 43.99999999992309,
      "laying_method" : "base",
      "depth_start" : 3.0,
      "depth_end" : 3.0,
      "cost" : 4280100,
      "construction_cost" : 4280100,
      "k_spec" : 1.0
    }
  }, {
    "type" : "Feature",
    "id" : "vC_stseg_2115",
    "geometry" : {
      "type" : "LineString",
      "coordinates" : [ [ 37.63296841952612, 55.70009441429533 ], [ 37.632944760206705, 55.70014376058357 ], [ 37.63296587604119, 55.700184407464775 ], [ 37.6328466024688, 55.700275760196696 ] ]
    },
    "properties" : {
      "id" : "vC_stseg_2115",
      "object_type" : "heat_network",
      "variant_id" : "vC",
      "start_node_id" : "vC_stch_2100",
      "end_node_id" : 3,
      "flow_tph" : 29.42,
      "diameter" : 125,
      "length" : 23.037651383324096,
      "laying_method" : "base",
      "depth_start" : 3.0,
      "depth_end" : 3.0,
      "cost" : 2240988,
      "construction_cost" : 2240988,
      "k_spec" : 1.0
    }
  }, {
    "type" : "Feature",
    "id" : "vC_stseg_2106",
    "geometry" : {
      "type" : "LineString",
      "coordinates" : [ [ 37.63235248290101, 55.700250994598825 ], [ 37.63232076721293, 55.70026699787186 ], [ 37.632202633606305, 55.70031441743034 ] ]
    },
    "properties" : {
      "id" : "vC_stseg_2106",
      "object_type" : "heat_network",
      "variant_id" : "vC",
      "start_node_id" : "vC_stch_2104",
      "end_node_id" : 8,
      "flow_tph" : 18.03,
      "diameter" : 100,
      "length" : 11.783300342312097,
      "laying_method" : "base",
      "depth_start" : 3.0,
      "depth_end" : 3.0,
      "cost" : 1057528,
      "construction_cost" : 1057528,
      "k_spec" : 1.0
    }
  }, {
    "type" : "Feature",
    "id" : "vC_stseg_2116",
    "geometry" : {
      "type" : "LineString",
      "coordinates" : [ [ 37.63235248290101, 55.700250994598825 ], [ 37.632012226474316, 55.70004826125506 ] ]
    },
    "properties" : {
      "id" : "vC_stseg_2116",
      "object_type" : "heat_network",
      "variant_id" : "vC",
      "start_node_id" : "vC_stch_2104",
      "end_node_id" : 6,
      "flow_tph" : 15.99,
      "diameter" : 100,
      "length" : 31.089634196127896,
      "laying_method" : "base",
      "depth_start" : 3.0,
      "depth_end" : 3.0,
      "cost" : 2790232,
      "construction_cost" : 2790232,
      "k_spec" : 1.0
    }
  }, {
    "type" : "Feature",
    "id" : "vC_stch_2100",
    "geometry" : {
      "type" : "Point",
      "coordinates" : [ 37.63296841952612, 55.70009441429533 ]
    },
    "properties" : {
      "id" : "vC_stch_2100",
      "object_type" : "heat_chamber",
      "variant_id" : "vC",
      "diameter" : 150,
      "cost" : 3000000
    }
  }, {
    "type" : "Feature",
    "id" : "vC_stch_2104",
    "geometry" : {
      "type" : "Point",
      "coordinates" : [ 37.63235248290101, 55.700250994598825 ]
    },
    "properties" : {
      "id" : "vC_stch_2104",
      "object_type" : "heat_chamber",
      "variant_id" : "vC",
      "diameter" : 125,
      "cost" : 3000000
    }
  }, {
    "type" : "Feature",
    "id" : "vC_stch_2092",
    "geometry" : {
      "type" : "Point",
      "coordinates" : [ 37.63324742961085, 55.69862982075339 ]
    },
    "properties" : {
      "id" : "vC_stch_2092",
      "object_type" : "heat_chamber",
      "variant_id" : "vC",
      "diameter" : 200,
      "cost" : 3000000
    }
  }, {
    "type" : "Feature",
    "id" : "vC_stch_2084",
    "geometry" : {
      "type" : "Point",
      "coordinates" : [ 37.633751974657024, 55.69752960365188 ]
    },
    "properties" : {
      "id" : "vC_stch_2084",
      "object_type" : "heat_chamber",
      "variant_id" : "vC",
      "diameter" : 125,
      "cost" : 3000000
    }
  }, {
    "type" : "Feature",
    "id" : "vC_stch_2096",
    "geometry" : {
      "type" : "Point",
      "coordinates" : [ 37.633151368452644, 55.69971283292335 ]
    },
    "properties" : {
      "id" : "vC_stch_2096",
      "object_type" : "heat_chamber",
      "variant_id" : "vC",
      "diameter" : 200,
      "cost" : 3000000
    }
  }, {
    "type" : "Feature",
    "id" : "vC_stch_2088",
    "geometry" : {
      "type" : "Point",
      "coordinates" : [ 37.63290911346864, 55.697701136387316 ]
    },
    "properties" : {
      "id" : "vC_stch_2088",
      "object_type" : "heat_chamber",
      "variant_id" : "vC",
      "diameter" : 200,
      "cost" : 3000000
    }
  }, {
    "type" : "Feature",
    "id" : "vC_stch_2080",
    "geometry" : {
      "type" : "Point",
      "coordinates" : [ 37.632035535794465, 55.696851996815745 ]
    },
    "properties" : {
      "id" : "vC_stch_2080",
      "object_type" : "heat_chamber",
      "variant_id" : "vC",
      "diameter" : 250,
      "cost" : 5000000
    }
  }, {
    "type" : "Feature",
    "id" : "summary_vC",
    "geometry" : null,
    "properties" : {
      "id" : "summary_vC",
      "object_type" : "variant_summary",
      "variant_id" : "vC",
      "rank" : 2,
      "construction_cost" : 323535991,
      "chamber_construction_cost" : 52000000,
      "existing_chamber_tie_in_count" : 2,
      "existing_chamber_tie_in_cost" : 10000000,
      "unconnected_penalty" : 0,
      "calculated_cost" : 323535991,
      "new_network_length" : 2271.9088934671354,
      "score" : 15.8747,
      "unconnected_oks_ids" : [ ]
    }
  } ]
}